{
  "type": "FeatureCollection",
  "features": [
    {
      "type": "Feature",
      "properties": {
        "norad_id": 30050,
        "name": "FENGYUN 1C DEB",
        "group": "fengyun-1c-debris",
        "lat": -36.89767679913234,
        "lon": -48.60997023075939,
        "alt_km": 907.3604667484151,
        "timestamp": "2025-12-11T18:59:46.346677+00:00",
        "meta_object_name": "FENGYUN 1C DEB",
        "meta_object_id": "1999-025PB",
        "meta_epoch": "2025-12-10T20:46:02.997408",
        "meta_mean_motion": 13.85039338,
        "meta_eccentricity": 0.0171643,
        "meta_inclination": 96.818,
        "meta_ra_of_asc_node": 305.5624,
        "meta_arg_of_pericenter": 35.4754,
        "meta_mean_anomaly": 353.7488,
        "meta_ephemeris_type": 0,
        "meta_classification_type": "U",
        "meta_norad_cat_id": 30050,
        "meta_element_set_no": 999,
        "meta_rev_at_epoch": 95176,
        "meta_bstar": 0.0018736,
        "meta_mean_motion_dot": 2.352e-05,
        "meta_mean_motion_ddot": 0,
        "tle_line1": "1 30050U 99025PB  25344.86531247  .00002352  00000+0  18736-2 0  9995",
        "tle_line2": "2 30050  96.8180 305.5624 0171643  35.4754 353.7488 13.85039338951766"
      },
      "geometry": {
        "type": "Point",
        "coordinates": [
          -48.60997023075939,
          -36.89767679913234
        ]
      }
    },
    {
      "type": "Feature",
      "properties": {
        "norad_id": 30052,
        "name": "FENGYUN 1C DEB",
        "group": "fengyun-1c-debris",
        "lat": -72.48863967903496,
        "lon": 42.69778343202345,
        "alt_km": 856.3015665130188,
        "timestamp": "2025-12-11T18:59:46.346688+00:00",
        "meta_object_name": "FENGYUN 1C DEB",
        "meta_object_id": "1999-025PD",
        "meta_epoch": "2025-12-11T02:11:26.340576",
        "meta_mean_motion": 13.72957067,
        "meta_eccentricity": 0.02889631,
        "meta_inclination": 99.2995,
        "meta_ra_of_asc_node": 10.7317,
        "meta_arg_of_pericenter": 236.5912,
        "meta_mean_anomaly": 186.6704,
        "meta_ephemeris_type": 0,
        "meta_classification_type": "U",
        "meta_norad_cat_id": 30052,
        "meta_element_set_no": 999,
        "meta_rev_at_epoch": 94532,
        "meta_bstar": 0.00064778129,
        "meta_mean_motion_dot": 7.62e-06,
        "meta_mean_motion_ddot": 0,
        "tle_line1": "1 30052U 99025PD  25345.09127709  .00000762  00000+0  64778-3 0  9998",
        "tle_line2": "2 30052  99.2995  10.7317 0288963 236.5912 186.6704 13.72957067945320"
      },
      "geometry": {
        "type": "Point",
        "coordinates": [
          42.69778343202345,
          -72.48863967903496
        ]
      }
    },
    {
      "type": "Feature",
      "properties": {
        "norad_id": 30053,
        "name": "FENGYUN 1C DEB",
        "group": "fengyun-1c-debris",
        "lat": 50.09522053893246,
        "lon": 148.56874478667643,
        "alt_km": 819.4002859038101,
        "timestamp": "2025-12-11T18:59:46.346699+00:00",
        "meta_object_name": "FENGYUN 1C DEB",
        "meta_object_id": "1999-025PE",
        "meta_epoch": "2025-12-10T22:50:05.584992",
        "meta_mean_motion": 13.94122017,
        "meta_eccentricity": 0.0331634,
        "meta_inclination": 98.5757,
        "meta_ra_of_asc_node": 158.1825,
        "meta_arg_of_pericenter": 343.3902,
        "meta_mean_anomaly": 170.2381,
        "meta_ephemeris_type": 0,
        "meta_classification_type": "U",
        "meta_norad_cat_id": 30053,
        "meta_element_set_no": 999,
        "meta_rev_at_epoch": 94961,
        "meta_bstar": 0.0020153,
        "meta_mean_motion_dot": 4.176e-05,
        "meta_mean_motion_ddot": 0,
        "tle_line1": "1 30053U 99025PE  25344.95145353  .00004176  00000+0  20153-2 0  9999",
        "tle_line2": "2 30053  98.5757 158.1825 0331634 343.3902 170.2381 13.94122017949619"
      },
      "geometry": {
        "type": "Point",
        "coordinates": [
          148.56874478667643,
          50.09522053893246
        ]
      }
    },
    {
      "type": "Feature",
      "properties": {
        "norad_id": 30054,
        "name": "FENGYUN 1C DEB",
        "group": "fengyun-1c-debris",
        "lat": -45.545915254317904,
        "lon": -171.64003979150823,
        "alt_km": 1163.7959440611749,
        "timestamp": "2025-12-11T18:59:46.346710+00:00",
        "meta_object_name": "FENGYUN 1C DEB",
        "meta_object_id": "1999-025PF",
        "meta_epoch": "2025-12-10T01:41:54.235104",
        "meta_mean_motion": 13.69859991,
        "meta_eccentricity": 0.02759618,
        "meta_inclination": 99.3718,
        "meta_ra_of_asc_node": 16.3731,
        "meta_arg_of_pericenter": 12.2008,
        "meta_mean_anomaly": 14.6911,
        "meta_ephemeris_type": 0,
        "meta_classification_type": "U",
        "meta_norad_cat_id": 30054,
        "meta_element_set_no": 999,
        "meta_rev_at_epoch": 94312,
        "meta_bstar": 0.00073971903,
        "meta_mean_motion_dot": 8.04e-06,
        "meta_mean_motion_ddot": 0,
        "tle_line1": "1 30054U 99025PF  25344.07076661  .00000804  00000+0  73972-3 0  9990",
        "tle_line2": "2 30054  99.3718  16.3731 0275961  12.2008  14.6911 13.69859991943126"
      },
      "geometry": {
        "type": "Point",
        "coordinates": [
          -171.64003979150823,
          -45.545915254317904
        ]
      }
    },
    {
      "type": "Feature",
      "properties": {
        "norad_id": 30056,
        "name": "FENGYUN 1C DEB",
        "group": "fengyun-1c-debris",
        "lat": 25.494862615237384,
        "lon": -4.439698272258645,
        "alt_km": 866.7844649205608,
        "timestamp": "2025-12-11T18:59:46.346720+00:00",
        "meta_object_name": "FENGYUN 1C DEB",
        "meta_object_id": "1999-025PH",
        "meta_epoch": "2025-12-10T12:30:46.822464",
        "meta_mean_motion": 13.73960691,
        "meta_eccentricity": 0.02998364,
        "meta_inclination": 98.3227,
        "meta_ra_of_asc_node": 170.4493,
        "meta_arg_of_pericenter": 216.8139,
        "meta_mean_anomaly": 141.2089,
        "meta_ephemeris_type": 0,
        "meta_classification_type": "U",
        "meta_norad_cat_id": 30056,
        "meta_element_set_no": 999,
        "meta_rev_at_epoch": 93945,
        "meta_bstar": 0.0044173582,
        "meta_mean_motion_dot": 5.701e-05,
        "meta_mean_motion_ddot": 0,
        "tle_line1": "1 30056U 99025PH  25344.52137526  .00005701  00000+0  44174-2 0  9992",
        "tle_line2": "2 30056  98.3227 170.4493 0299836 216.8139 141.2089 13.73960691939452"
      },
      "geometry": {
        "type": "Point",
        "coordinates": [
          -4.439698272258645,
          25.494862615237384
        ]
      }
    },
    {
      "type": "Feature",
      "properties": {
        "norad_id": 30057,
        "name": "FENGYUN 1C DEB",
        "group": "fengyun-1c-debris",
        "lat": -21.28568797860256,
        "lon": 58.111421641018744,
        "alt_km": 1265.3861333561708,
        "timestamp": "2025-12-11T18:59:46.346731+00:00",
        "meta_object_name": "FENGYUN 1C DEB",
        "meta_object_id": "1999-025PJ",
        "meta_epoch": "2025-12-11T00:14:52.404000",
        "meta_mean_motion": 13.57116184,
        "meta_eccentricity": 0.02926586,
        "meta_inclination": 98.8831,
        "meta_ra_of_asc_node": 53.9118,
        "meta_arg_of_pericenter": 150.9111,
        "meta_mean_anomaly": 333.6815,
        "meta_ephemeris_type": 0,
        "meta_classification_type": "U",
        "meta_norad_cat_id": 30057,
        "meta_element_set_no": 999,
        "meta_rev_at_epoch": 93212,
        "meta_bstar": 0.0019962612,
        "meta_mean_motion_dot": 1.841e-05,
        "meta_mean_motion_ddot": 0,
        "tle_line1": "1 30057U 99025PJ  25345.01032875  .00001841  00000+0  19963-2 0  9998",
        "tle_line2": "2 30057  98.8831  53.9118 0292658 150.9111 333.6815 13.57116184932124"
      },
      "geometry": {
        "type": "Point",
        "coordinates": [
          58.111421641018744,
          -21.28568797860256
        ]
      }
    },
    {
      "type": "Feature",
      "properties": {
        "norad_id": 30058,
        "name": "FENGYUN 1C DEB",
        "group": "fengyun-1c-debris",
        "lat": 69.42877733163462,
        "lon": -36.8872056122493,
        "alt_km": 1035.7718501086101,
        "timestamp": "2025-12-11T18:59:46.346741+00:00",
        "meta_object_name": "FENGYUN 1C DEB",
        "meta_object_id": "1999-025PK",
        "meta_epoch": "2025-12-08T23:14:05.784000",
        "meta_mean_motion": 13.48231633,
        "meta_eccentricity": 0.0315694,
        "meta_inclination": 99.6493,
        "meta_ra_of_asc_node": 347.3377,
        "meta_arg_of_pericenter": 161.7381,
        "meta_mean_anomaly": 256.931,
        "meta_ephemeris_type": 0,
        "meta_classification_type": "U",
        "meta_norad_cat_id": 30058,
        "meta_element_set_no": 999,
        "meta_rev_at_epoch": 92797,
        "meta_bstar": 0.00072673,
        "meta_mean_motion_dot": 5.69e-06,
        "meta_mean_motion_ddot": 0,
        "tle_line1": "1 30058U 99025PK  25342.96812250  .00000569  00000+0  72673-3 0  9997",
        "tle_line2": "2 30058  99.6493 347.3377 0315694 161.7381 256.9310 13.48231633927971"
      },
      "geometry": {
        "type": "Point",
        "coordinates": [
          -36.8872056122493,
          69.42877733163462
        ]
      }
    }
  ]
}